NORAD_CAT_ID,OBJECT_NAME,OBJECT_TYPE,EPOCH,MEAN_MOTION,ECCENTRICITY,INCLINATION,RA_OF_ASC_NODE,ARG_OF_PERICENTER,MEAN_ANOMALY,BSTAR,MEAN_MOTION_DOT,MEAN_MOTION_DDOT,TLE_LINE0,TLE_LINE1,TLE_LINE2,SEMIMAJOR_AXIS,PERIOD,APOGEE,PERIGEE,DECAYED
53563.0,STARLINK-4561,PAYLOAD,2022-12-23 12:23:14,15.08839535,0.0001589,53.2182,276.4212,62.3271,297.7883,-0.00013957,-2.509e-05,0.0,0 STARLINK-4561,1 53563U 22101AN  22357.51613724 -.00002509  00000-0 -13957-3 0  9992,2 53563  53.2182 276.4212 0001589  62.3271 297.7883 15.08839535 19486,6917.882,95.438,540.846,538.648,0.0
53563.0,STARLINK-4561,PAYLOAD,2022-12-23 18:44:46,15.08835393,0.0001505,53.218,275.2317,60.8564,299.2578,-0.0001043,-1.947e-05,0.0,0 STARLINK-4561,1 53563U 22101AN  22357.78109888 -.00001947  00000-0 -10430-3 0  9990,2 53563  53.2180 275.2317 0001505  60.8564 299.2578 15.08835393 19524,6917.894,95.438,540.8009999999998,538.7180000000002,0.0
53563.0,STARLINK-4561,PAYLOAD,2022-12-24 04:17:05,15.08842523,0.0001564,53.2173,273.4479,58.9178,301.1968,-3.0753e-05,-7.77e-06,0.0,0 STARLINK-4561,1 53563U 22101AN  22358.17853178 -.00000777  00000-0 -30753-4 0  9993,2 53563  53.2173 273.4479 0001564  58.9178 301.1968 15.08842523 19584,6917.873000000001,95.437,540.82,538.656,0.0
53563.0,STARLINK-4561,PAYLOAD,2022-12-24 18:35:32,15.08841645,0.0001564999999999,53.2173,270.7719,60.4763,299.6385,0.00010389,1.366e-05,0.0,0 STARLINK-4561,1 53563U 22101AN  22358.77468538  .00001366  00000-0  10389-3 0  9996,2 53563  53.2173 270.7719 0001565  60.4763 299.6385 15.08841645 19678,6917.875,95.437,540.823,538.658,0.0
53563.0,STARLINK-4561,PAYLOAD,2022-12-25 04:07:51,15.08839469,0.0001592,53.2171,268.988,59.8695,300.2455,0.00010979,1.46e-05,0.0,0 STARLINK-4561,1 53563U 22101AN  22359.17212621  .00001460  00000-0  10979-3 0  9991,2 53563  53.2171 268.9880 0001592  59.8695 300.2455 15.08839469 19735,6917.882,95.438,540.8480000000002,538.646,0.0
53563.0,STARLINK-4561,PAYLOAD,2022-12-25 18:26:21,15.08825442,0.0001506,53.2171,266.312,54.1851,305.9281,-3.9371e-05,-9.14e-06,0.0,0 STARLINK-4561,1 53563U 22101AN  22359.76830333 -.00000914  00000-0 -39371-4 0  9995,2 53563  53.2171 266.3120 0001506  54.1851 305.9281 15.08825442 19826,6917.925,95.438,540.832,538.748,0.0
53563.0,STARLINK-4561,PAYLOAD,2022-12-26 02:23:16,15.08832534,0.0001648,53.2172,264.8256,55.3842,304.7305,-4.8924e-05,-1.066e-05,0.0,0 STARLINK-4561,1 53563U 22101AN  22360.09950145 -.00001066  00000-0 -48924-4 0  9990,2 53563  53.2172 264.8256 0001648  55.3842 304.7305 15.08832534 19879,6917.903,95.438,540.908,538.628,0.0
53563.0,STARLINK-4561,PAYLOAD,2022-12-26 10:20:12,15.08837904,0.0001626999999999,53.2173,263.3392,55.1867,304.9278,-3.1317e-05,-7.86e-06,0.0,0 STARLINK-4561,1 53563U 22101AN  22360.43069842 -.00000786  00000-0 -31317-4 0  9999,2 53563  53.2173 263.3392 0001627  55.1867 304.9278 15.08837904 19920,6917.887,95.438,540.877,538.626,0.0
53563.0,STARLINK-4561,PAYLOAD,2022-12-26 18:17:08,15.08860822,0.0001901,53.2173,261.8526,83.5441,276.5768,-0.0004137,-6.87e-05,0.0,0 STARLINK-4561,1 53563U 22101AN  22360.76190160 -.00006870  00000-0 -41370-3 0  9992,2 53563  53.2173 261.8526 0001901  83.5441 276.5768 15.08860822 19978,6917.816999999999,95.436,540.997,538.367,0.0
53563.0,STARLINK-4561,PAYLOAD,2022-12-27 00:38:41,15.08832849,0.0001591,53.2176,260.6632,59.779,300.336,-6.8087e-05,-1.371e-05,0.0,0 STARLINK-4561,1 53563U 22101AN  22361.02686475 -.00001371  00000-0 -68087-4 0  9997,2 53563  53.2176 260.6632 0001591  59.7790 300.3360 15.08832849 20012,6917.901999999999,95.438,540.868,538.6669999999998,0.0
53563.0,STARLINK-4561,PAYLOAD,2022-12-27 18:07:54,15.08844067,0.0001608,53.2187,257.3919,59.8277,300.2874,0.0001578,2.225e-05,0.0,0 STARLINK-4561,1 53563U 22101AN  22361.75548910  .00002225  00000-0  15780-3 0  9996,2 53563  53.2187 257.3919 0001608  59.8277 300.2874 15.08844067 20121,6917.868,95.437,540.845,538.621,0.0
53563.0,STARLINK-4561,PAYLOAD,2022-12-28 00:29:26,15.08846137,0.0001668,53.2177,256.2021,56.4098,303.7053,0.00015596,2.195e-05,0.0,0 STARLINK-4561,1 53563U 22101AN  22362.02044732  .00002195  00000-0  15596-3 0  9991,2 53563  53.2177 256.2021 0001668  56.4098 303.7053 15.08846137 20163,6917.861999999999,95.437,540.881,538.573,0.0
53563.0,STARLINK-4561,PAYLOAD,2022-12-28 22:44:52,15.0882064,0.0001334,53.2177,252.0394,49.584,310.5268,0.00012854,1.757e-05,0.0,0 STARLINK-4561,1 53563U 22101AN  22362.94782482  .00001757  00000-0  12854-3 0  9990,2 53563  53.2177 252.0394 0001334  49.5840 310.5268 15.08820640 20309,6917.94,95.439,540.727,538.882,0.0
53563.0,STARLINK-4561,PAYLOAD,2022-12-29 16:14:07,15.08820157,0.0001748,53.2184,248.7704,47.6462,312.4678,-0.00018549,-3.237e-05,0.0,0 STARLINK-4561,1 53563U 22101AN  22363.67648145 -.00003237  00000-0 -18549-3 0  9992,2 53563  53.2184 248.7704 0001748  47.6462 312.4678 15.08820157 20413,6917.941,95.439,541.015,538.597,0.0
53563.0,STARLINK-4561,PAYLOAD,2022-12-30 09:43:21,15.08832503,0.0001506999999999,53.2169,245.4985,59.8783,300.2358,-5.8258e-05,-1.215e-05,0.0,0 STARLINK-4561,1 53563U 22101AN  22364.40511449 -.00001215  00000-0 -58258-4 0  9996,2 53563  53.2169 245.4985 0001507  59.8783 300.2358 15.08832503 20525,6917.903,95.438,540.811,538.726,0.0
53563.0,STARLINK-4561,PAYLOAD,2022-12-30 16:04:53,15.08842508,0.0001689,53.2163,244.307,36.6209,323.4899,0.00011746,1.582e-05,0.0,0 STARLINK-4561,1 53563U 22101AN  22364.67006467  .00001582  00000-0  11746-3 0  9999,2 53563  53.2163 244.3070 0001689  36.6209 323.4899 15.08842508 20566,6917.873000000001,95.437,540.906,538.569,0.0
53563.0,STARLINK-4561,PAYLOAD,2022-12-31 01:37:11,15.08862446,0.000164,53.2164,242.5229,56.4048,303.7101,0.00014813,2.072e-05,0.0,0 STARLINK-4561,1 53563U 22101AN  22365.06749069  .00002072  00000-0  14813-3 0  9998,2 53563  53.2164 242.5229 0001640  56.4048 303.7101 15.08862446 20628,6917.812,95.436,540.811,538.5419999999998,0.0
53563.0,STARLINK-4561,PAYLOAD,2022-12-31 09:34:07,15.088449800000005,0.0001631,53.2164,241.0356,57.5434,302.5716,0.00030012,4.492e-05,0.0,0 STARLINK-4561,1 53563U 22101AN  22365.39869446  .00004492  00000-0  30012-3 0  9993,2 53563  53.2164 241.0356 0001631  57.5434 302.5716 15.08844980 20671,6917.865,95.437,540.8580000000002,538.602,0.0
53563.0,STARLINK-4561,PAYLOAD,2022-12-31 22:17:12,15.08840388,0.0001626,53.2166,238.6572,56.4084,303.7064,0.00018119,2.597e-05,0.0,0 STARLINK-4561,1 53563U 22101AN  22365.92862077  .00002597  00000-0  18119-3 0  9993,2 53563  53.2166 238.6572 0001626  56.4084 303.7064 15.08840388 20754,6917.879,95.438,540.869,538.619,0.0
53563.0,STARLINK-4561,PAYLOAD,2023-01-01 22:08:01,15.08839771,0.0001769,53.2166,234.1965,61.7079,298.4091,-0.00015672,-2.781e-05,0.0,0 STARLINK-4561,1 53563U 22101AN  23001.92223415 -.00002781  00000-0 -15672-3 0  9996,2 53563  53.2166 234.1965 0001769  61.7079 298.4091 15.08839771 20903,6917.880999999999,95.438,540.97,538.5219999999998,0.0
53563.0,STARLINK-4561,PAYLOAD,2023-01-02 01:18:47,15.08844149,0.0001595999999999,53.2167,233.6019,56.1054,304.009,-0.00016146,-2.857e-05,0.0,0 STARLINK-4561,1 53563U 22101AN  23002.05471154 -.00002857  00000-0 -16146-3 0  9997,2 53563  53.2167 233.6019 0001596  56.1054 304.0090 15.08844149 20927,6917.868,95.437,540.837,538.629,0.0
53563.0,STARLINK-4561,PAYLOAD,2023-01-02 21:58:47,15.08841557,0.0001557,53.2164,229.7364,51.9649,308.1484,-2.0541e-05,-6.15e-06,0.0,0 STARLINK-4561,1 53563U 22101AN  23002.91582592 -.00000615  00000-0 -20541-4 0  9996,2 53563  53.2164 229.7364 0001557  51.9649 308.1484 15.08841557 21050,6917.876,95.437,540.818,538.664,0.0
53563.0,STARLINK-4561,PAYLOAD,2023-01-03 05:55:43,15.08836417,0.0001621,53.2165,228.25,52.8565,307.2575,-5.9759e-05,-1.239e-05,0.0,0 STARLINK-4561,1 53563U 22101AN  23003.24703153 -.00001239  00000-0 -59759-4 0  9997,2 53563  53.2165 228.2500 0001621  52.8565 307.2575 15.08836417 21102,6917.891,95.438,540.878,538.635,0.0
53563.0,STARLINK-4561,PAYLOAD,2023-01-03 13:52:39,15.08831577,0.0001623,53.2164,226.7631,53.2351,306.879,4.8457e-05,4.83e-06,0.0,0 STARLINK-4561,1 53563U 22101AN  23003.57823345  .00000483  00000-0  48457-4 0  9990,2 53563  53.2164 226.7631 0001623  53.2351 306.8790 15.08831577 21150,6917.906,95.438,540.894,538.648,0.0
53563.0,STARLINK-4561,PAYLOAD,2023-01-04 07:21:53,15.08842014,0.0001666999999999,53.2164,223.4923,55.5052,304.6098,0.00010949,1.455e-05,0.0,0 STARLINK-4561,1 53563U 22101AN  23004.30686694  .00001455  00000-0  10949-3 0  9990,2 53563  53.2164 223.4923 0001667  55.5052 304.6098 15.08842014 21266,6917.874,95.437,540.8919999999998,538.586,0.0
53563.0,STARLINK-4561,PAYLOAD,2023-01-05 05:37:18,15.08815135,0.000221,53.2163,219.3292,50.9195,309.1994,-9.5571e-05,-1.808e-05,0.0,0 STARLINK-4561,1 53563U 22101AN  23005.23424764 -.00001808  00000-0 -95571-4 0  9990,2 53563  53.2163 219.3292 0002210  50.9195 309.1994 15.08815135 21405,6917.956,95.439,541.35,538.293,0.0
53563.0,STARLINK-4561,PAYLOAD,2023-01-05 13:34:14,15.08815637,0.0001740999999999,53.2163,217.8423,66.0869,294.0305,-0.00010152,-1.902e-05,0.0,0 STARLINK-4561,1 53563U 22101AN  23005.56545121 -.00001902  00000-0 -10152-3 0  9993,2 53563  53.2163 217.8423 0001741  66.0869 294.0305 15.08815637 21458,6917.955,95.439,541.024,538.615,0.0
53563.0,STARLINK-4561,PAYLOAD,2023-01-05 18:20:24,15.08819017,0.0001686,53.2174,216.9502,63.1471,296.9694,-9.5215e-05,-1.802e-05,0.0,0 STARLINK-4561,1 53563U 22101AN  23005.76417142 -.00001802  00000-0 -95215-4 0  9999,2 53563  53.2174 216.9502 0001686  63.1471 296.9694 15.08819017 21484,6917.945,95.439,540.976,538.643,0.0
53563.0,STARLINK-4561,PAYLOAD,2023-01-06 05:28:05,15.08823004,0.0001766,53.2167,214.8687,63.6087,296.5086,-0.00014392,-2.577e-05,0.0,0 STARLINK-4561,1 53563U 22101AN  23006.22784577 -.00002577  00000-0 -14392-3 0  9996,2 53563  53.2167 214.8687 0001766  63.6087 296.5086 15.08823004 21554,6917.932,95.439,541.019,538.576,0.0
